[Satellite]
VERSION=1.1
NAME=CZ-6A DEB
NICKNAME=CZ-6A DEB
TLE1=1 54576U 22151MC  22342.20973371  .00006108  00000+0  21295-2 0  9998
TLE2=2 54576  98.6893 346.8656 0117581 236.2329 122.7609 14.31864563  3045
STATUS=0
